{"type":"Feature","properties":{"nom":"CC Arbois, Poligny, Salins, Coeur du Jura","code":"200071595","codesDepartements":["39"],"codesRegions":["27"],"population":21429},"geometry":{"type":"Polygon","coordinates":[[[5.914869,46.987457],[5.915133,46.987474],[5.916042,46.98723],[5.916958,46.987017],[5.917429,46.987075],[5.917611,46.987075],[5.918074,46.987023],[5.918439,46.986938],[5.919241,46.986626],[5.919383,46.986657],[5.919611,46.986612],[5.919685,46.986556],[5.919913,46.986524],[5.920205,46.986546],[5.920722,46.986204],[5.920962,46.986081],[5.921391,46.985783],[5.921899,46.985738],[5.921719,46.985438],[5.921548,46.985289],[5.921126,46.98512],[5.920936,46.984995],[5.920857,46.984884],[5.920529,46.984572],[5.920418,46.984279],[5.920186,46.983868],[5.920124,46.983615],[5.920193,46.983328],[5.921652,46.983266],[5.921617,46.982943],[5.921726,46.982395],[5.921798,46.982137],[5.921198,46.981638],[5.920802,46.981395],[5.918973,46.98047],[5.918139,46.980093],[5.91797,46.980058],[5.917779,46.979963],[5.91765,46.979791],[5.917497,46.979675],[5.917768,46.979432],[5.918028,46.979379],[5.918683,46.979633],[5.918931,46.97984],[5.919416,46.980315],[5.920187,46.980706],[5.921746,46.979656],[5.92354,46.978598],[5.925656,46.97989],[5.92616,46.981152],[5.926869,46.983605],[5.928886,46.981664],[5.929283,46.981753],[5.931319,46.982584],[5.932326,46.983615],[5.932869,46.983868],[5.933167,46.983984],[5.933464,46.984041],[5.934124,46.983964],[5.934398,46.98387],[5.934496,46.983734],[5.934504,46.983552],[5.934401,46.983313],[5.934596,46.983138],[5.935715,46.983148],[5.93639,46.983397],[5.936719,46.983394],[5.937913,46.983015],[5.939335,46.982539],[5.940201,46.982364],[5.940908,46.982859],[5.940645,46.983022],[5.94046,46.983188],[5.940413,46.983329],[5.940421,46.98356],[5.940509,46.98417],[5.940613,46.984677],[5.940786,46.985386],[5.940921,46.98579],[5.940994,46.986402],[5.942248,46.987356],[5.943482,46.988082],[5.945206,46.988838],[5.945961,46.989169],[5.946805,46.989554],[5.94868,46.990035],[5.949211,46.990109],[5.949518,46.990117],[5.949384,46.989288],[5.949362,46.989068],[5.949386,46.988852],[5.949458,46.988559],[5.949492,46.988117],[5.949407,46.987961],[5.948916,46.987687],[5.948473,46.98734],[5.948124,46.98699],[5.947691,46.986488],[5.947443,46.986162],[5.947319,46.985924],[5.94712,46.985646],[5.94687,46.985406],[5.946664,46.985251],[5.946369,46.984911],[5.946148,46.984757],[5.945743,46.984523],[5.945375,46.984046],[5.945293,46.983871],[5.945205,46.983497],[5.944879,46.983169],[5.944875,46.982986],[5.945038,46.982858],[5.945322,46.982574],[5.945414,46.982308],[5.945364,46.982154],[5.945108,46.98192],[5.944598,46.981645],[5.943676,46.981188],[5.943225,46.980953],[5.943129,46.980794],[5.943587,46.980549],[5.943764,46.980387],[5.943878,46.980137],[5.943959,46.979862],[5.948529,46.980945],[5.949058,46.981074],[5.949466,46.981269],[5.949706,46.981345],[5.950195,46.981425],[5.951293,46.981474],[5.952144,46.98148],[5.953232,46.981447],[5.953769,46.981337],[5.953938,46.981254],[5.954275,46.981099],[5.954536,46.981006],[5.95514,46.980872],[5.956152,46.980777],[5.956952,46.980819],[5.957413,46.980798],[5.957842,46.98076],[5.958872,46.980584],[5.95974,46.980546],[5.960696,46.980538],[5.962091,46.98045],[5.962528,46.980483],[5.963214,46.980659],[5.963521,46.980691],[5.964294,46.980642],[5.965047,46.980663],[5.965447,46.980634],[5.965804,46.98057],[5.966143,46.980542],[5.966793,46.980561],[5.968537,46.980598],[5.96863,46.979756],[5.968845,46.979092],[5.969033,46.978438],[5.969121,46.977742],[5.969032,46.977022],[5.968949,46.976387],[5.969893,46.976451],[5.970552,46.976514],[5.971394,46.976488],[5.972451,46.976417],[5.974308,46.976283],[5.975133,46.9762],[5.975996,46.97607],[5.975328,46.974251],[5.975169,46.97373],[5.975168,46.97331],[5.975559,46.97324],[5.976212,46.97305],[5.976439,46.972892],[5.976536,46.972685],[5.976553,46.972378],[5.976371,46.971899],[5.975998,46.97158],[5.975308,46.971207],[5.974627,46.970718],[5.973493,46.97009],[5.972555,46.969598],[5.975997,46.966607],[5.979508,46.963525],[5.978544,46.962944],[5.976467,46.961492],[5.973334,46.959767],[5.972749,46.959047],[5.972188,46.958121],[5.968674,46.955669],[5.966452,46.954038],[5.96563,46.954066],[5.965011,46.954128],[5.963727,46.954362],[5.962932,46.953687],[5.962189,46.953133],[5.961467,46.952489],[5.960883,46.951751],[5.960359,46.95146],[5.959746,46.951369],[5.959038,46.950934],[5.958083,46.950267],[5.957275,46.949606],[5.956387,46.94865],[5.957294,46.948245],[5.957592,46.948141],[5.957779,46.94802],[5.957891,46.947901],[5.959182,46.947045],[5.959625,46.946903],[5.960147,46.946536],[5.960382,46.946452],[5.960591,46.946414],[5.960909,46.946461],[5.961481,46.946723],[5.961624,46.946805],[5.962207,46.947051],[5.963059,46.947502],[5.963542,46.94778],[5.963933,46.948089],[5.964128,46.948395],[5.965552,46.947621],[5.966674,46.947039],[5.966123,46.94587],[5.970519,46.944252],[5.973103,46.943211],[5.975593,46.941568],[5.976611,46.941171],[5.978172,46.940337],[5.979042,46.93994],[5.979897,46.939461],[5.98068,46.939009],[5.981453,46.938612],[5.98395,46.937963],[5.98451,46.937919],[5.985654,46.938156],[5.985975,46.937433],[5.986951,46.936961],[5.988779,46.935767],[5.989591,46.935502],[5.99379,46.935916],[5.994928,46.934988],[5.995678,46.93431],[5.995706,46.933865],[5.995839,46.933745],[5.996779,46.933488],[5.997143,46.933528],[5.99621,46.93276],[5.995411,46.932049],[5.99371,46.930341],[5.989756,46.926324],[5.98941,46.925948],[5.986744,46.923432],[5.985054,46.921926],[5.984485,46.92145],[5.983873,46.920974],[5.982516,46.919944],[5.981679,46.919219],[5.982242,46.917748],[5.983121,46.915866],[5.982979,46.915621],[5.982902,46.915009],[5.982973,46.913899],[5.982645,46.908409],[5.981451,46.908002],[5.981719,46.907923],[5.982633,46.907702],[5.982981,46.907688],[5.983319,46.907612],[5.983714,46.907364],[5.983902,46.907269],[5.984157,46.907203],[5.984335,46.907115],[5.984669,46.906843],[5.984922,46.906771],[5.985215,46.906724],[5.985474,46.906612],[5.985876,46.906262],[5.986065,46.906033],[5.986509,46.905368],[5.986787,46.905155],[5.986931,46.905079],[5.98775,46.904865],[5.988352,46.904598],[5.989102,46.904282],[5.989915,46.903836],[5.99048,46.903572],[5.991031,46.90329],[5.991736,46.902848],[5.992483,46.902329],[5.992766,46.902088],[5.993435,46.90148],[5.994078,46.900821],[5.994285,46.900634],[5.994588,46.90041],[5.995083,46.900262],[5.995563,46.900207],[5.995904,46.90012],[5.996201,46.899966],[5.996402,46.899806],[5.996564,46.899297],[5.996732,46.899053],[5.998396,46.897721],[5.999349,46.896829],[6.000253,46.896126],[6.001024,46.895675],[6.001796,46.895574],[6.002599,46.895395],[6.003709,46.895172],[6.005121,46.895221],[6.007104,46.895328],[6.007937,46.895386],[6.008712,46.89572],[6.008954,46.895098],[6.009169,46.894435],[6.009429,46.893859],[6.010442,46.892341],[6.011358,46.891321],[6.012208,46.890303],[6.011735,46.889147],[6.011705,46.888698],[6.010981,46.887621],[6.010831,46.887421],[6.010944,46.887256],[6.010983,46.88693],[6.011087,46.886646],[6.011246,46.886078],[6.011562,46.885445],[6.012249,46.884127],[6.01244,46.883847],[6.012658,46.883414],[6.01263,46.883176],[6.012489,46.882864],[6.011551,46.882034],[6.00982,46.880337],[6.00954,46.880076],[6.008604,46.879015],[6.007382,46.877588],[6.00719,46.877125],[6.007062,46.876694],[6.006928,46.875982],[6.006672,46.875129],[6.006202,46.874035],[6.005803,46.873067],[6.007026,46.872883],[6.009731,46.872567],[6.009994,46.873057],[6.011449,46.872387],[6.012537,46.872157],[6.014084,46.872426],[6.014808,46.872381],[6.015459,46.872444],[6.015994,46.872161],[6.016653,46.871296],[6.016712,46.870945],[6.01626,46.870231],[6.015651,46.869534],[6.016717,46.868602],[6.017154,46.868484],[6.017428,46.868209],[6.018959,46.868077],[6.019211,46.868302],[6.01997,46.869119],[6.021083,46.86976],[6.022685,46.871487],[6.023216,46.872747],[6.023088,46.874195],[6.022386,46.874833],[6.022052,46.875183],[6.022003,46.875394],[6.022541,46.8754],[6.023809,46.8752],[6.026384,46.874582],[6.027721,46.874145],[6.029145,46.873499],[6.029377,46.873516],[6.029503,46.873602],[6.029529,46.873715],[6.029583,46.874645],[6.029676,46.874909],[6.029828,46.874981],[6.030022,46.874969],[6.030345,46.874704],[6.030729,46.874245],[6.031138,46.872803],[6.031253,46.872461],[6.031652,46.872096],[6.031858,46.872001],[6.032016,46.871837],[6.032357,46.871399],[6.032695,46.870891],[6.031891,46.870829],[6.031542,46.870553],[6.031356,46.869512],[6.031587,46.86929],[6.029961,46.867985],[6.029411,46.867605],[6.029027,46.867256],[6.028593,46.866837],[6.027742,46.866126],[6.027467,46.865849],[6.027061,46.865254],[6.026682,46.864806],[6.026543,46.864521],[6.025968,46.863494],[6.026988,46.863075],[6.027021,46.862988],[6.027144,46.862116],[6.028656,46.86146],[6.029274,46.861555],[6.02989,46.861971],[6.030491,46.861785],[6.029975,46.861432],[6.029179,46.860938],[6.028591,46.860454],[6.028222,46.860372],[6.027558,46.860126],[6.026972,46.860658],[6.019295,46.861332],[6.013151,46.86183],[5.996609,46.863041],[5.994764,46.86329],[5.989584,46.863721],[5.987797,46.863848],[5.981791,46.864352],[5.979956,46.864515],[5.975949,46.864866],[5.97524,46.864903],[5.974646,46.864963],[5.973683,46.865425],[5.971665,46.866194],[5.970308,46.86666],[5.969995,46.86626],[5.969814,46.865521],[5.969156,46.86495],[5.968363,46.864563],[5.967667,46.864482],[5.967175,46.864447],[5.966868,46.864455],[5.966487,46.864544],[5.965682,46.864819],[5.965261,46.864975],[5.964832,46.865026],[5.963905,46.865201],[5.963275,46.865238],[5.963635,46.866409],[5.963795,46.867086],[5.96409,46.867988],[5.964297,46.869123],[5.964504,46.87005],[5.964509,46.870592],[5.96418,46.870804],[5.961393,46.871777],[5.959489,46.872346],[5.958607,46.872679],[5.957912,46.871845],[5.957519,46.871886],[5.956511,46.872147],[5.954615,46.872575],[5.953153,46.872917],[5.951949,46.873221],[5.94829,46.873973],[5.94748,46.874178],[5.947012,46.87431],[5.947213,46.874633],[5.947225,46.874792],[5.947148,46.875045],[5.946656,46.875787],[5.946293,46.876166],[5.945998,46.876609],[5.945823,46.877047],[5.945786,46.87733],[5.94586,46.877607],[5.945981,46.877893],[5.946405,46.878327],[5.94684,46.878859],[5.946499,46.87926],[5.946273,46.879489],[5.946113,46.879597],[5.945624,46.879757],[5.945321,46.879822],[5.944855,46.88024],[5.944315,46.880537],[5.94408,46.88087],[5.944137,46.881216],[5.944272,46.881792],[5.943118,46.883385],[5.942928,46.883632],[5.94282,46.883819],[5.942494,46.884287],[5.942011,46.884721],[5.940989,46.886127],[5.939875,46.884878],[5.939245,46.885442],[5.938638,46.886007],[5.937869,46.884649],[5.937594,46.884053],[5.937064,46.883119],[5.936478,46.882703],[5.935175,46.881937],[5.934405,46.880975],[5.933432,46.879986],[5.932831,46.879542],[5.931373,46.879805],[5.930826,46.880061],[5.930411,46.880094],[5.92996,46.880108],[5.929545,46.880142],[5.929099,46.880129],[5.928612,46.880233],[5.927745,46.880523],[5.9272,46.880856],[5.926377,46.881258],[5.926261,46.88096],[5.922006,46.87623],[5.920889,46.87523],[5.920001,46.874717],[5.918729,46.874352],[5.918443,46.874],[5.917612,46.87236],[5.91741,46.872277],[5.917266,46.872101],[5.915196,46.87059],[5.914434,46.869983],[5.913254,46.86903],[5.912179,46.866676],[5.911762,46.866329],[5.908471,46.863235],[5.908123,46.862931],[5.908236,46.862657],[5.909775,46.860132],[5.908491,46.859759],[5.908203,46.859744],[5.90775,46.859626],[5.907373,46.859377],[5.907202,46.859294],[5.906059,46.859012],[5.905869,46.858987],[5.905542,46.859031],[5.904796,46.85939],[5.902782,46.860296],[5.90276,46.860155],[5.903211,46.85969],[5.903832,46.859084],[5.903921,46.858646],[5.903817,46.858346],[5.903819,46.857726],[5.903934,46.857463],[5.904129,46.857282],[5.903502,46.854609],[5.903603,46.854156],[5.904311,46.853883],[5.904483,46.853565],[5.904841,46.853145],[5.905585,46.852751],[5.905869,46.852549],[5.906279,46.851863],[5.906795,46.851186],[5.906928,46.850822],[5.906878,46.850583],[5.906027,46.850165],[5.905994,46.849937],[5.906179,46.849437],[5.906308,46.84914],[5.906587,46.848856],[5.906987,46.848555],[5.907095,46.848311],[5.907075,46.848104],[5.9071,46.847854],[5.907216,46.847526],[5.907454,46.847387],[5.907732,46.847137],[5.907838,46.846729],[5.907726,46.846201],[5.907718,46.845922],[5.90755,46.845413],[5.907419,46.84488],[5.907582,46.844593],[5.908064,46.843985],[5.896338,46.845935],[5.886387,46.847724],[5.883331,46.848299],[5.882895,46.848675],[5.882791,46.849043],[5.883042,46.849441],[5.883117,46.849688],[5.883058,46.850156],[5.882928,46.850361],[5.882919,46.850659],[5.882807,46.850951],[5.882599,46.851127],[5.88253,46.851253],[5.882389,46.85123],[5.881916,46.851298],[5.881496,46.85154],[5.881111,46.851652],[5.881384,46.850369],[5.881623,46.8493],[5.881657,46.848804],[5.880079,46.848762],[5.878834,46.848801],[5.87887,46.84934],[5.879199,46.850365],[5.879315,46.851127],[5.878689,46.851597],[5.878636,46.851779],[5.87846,46.852099],[5.878254,46.8523],[5.877794,46.852403],[5.877159,46.852372],[5.875688,46.85206],[5.874297,46.851323],[5.873677,46.850653],[5.873214,46.849274],[5.872155,46.849],[5.872019,46.848721],[5.872081,46.848484],[5.872282,46.84826],[5.872484,46.847946],[5.872802,46.84734],[5.873107,46.846817],[5.873549,46.845956],[5.872523,46.84518],[5.872015,46.844822],[5.871035,46.844093],[5.870773,46.843949],[5.869798,46.844457],[5.869375,46.844698],[5.868882,46.844912],[5.868225,46.845075],[5.866739,46.84501],[5.866026,46.844695],[5.865687,46.844683],[5.865345,46.844638],[5.864547,46.844634],[5.863991,46.844647],[5.863248,46.844624],[5.862113,46.844626],[5.861123,46.844694],[5.86062,46.844762],[5.860153,46.844808],[5.859804,46.844765],[5.859492,46.84448],[5.859371,46.84422],[5.859019,46.843873],[5.858732,46.843783],[5.858433,46.843838],[5.858259,46.843944],[5.857928,46.844021],[5.857574,46.843991],[5.857213,46.843813],[5.857095,46.843631],[5.856826,46.843361],[5.856609,46.843366],[5.856128,46.843435],[5.855486,46.843632],[5.855122,46.843794],[5.854651,46.844124],[5.854406,46.844332],[5.854077,46.844458],[5.853662,46.844648],[5.853284,46.844777],[5.852871,46.844956],[5.852418,46.844783],[5.852173,46.844869],[5.851486,46.844541],[5.851335,46.844298],[5.851568,46.843781],[5.851754,46.843497],[5.852101,46.843204],[5.851516,46.842529],[5.849467,46.841286],[5.847194,46.840269],[5.846295,46.839942],[5.844858,46.839401],[5.844135,46.839018],[5.844033,46.838656],[5.844664,46.837713],[5.845074,46.837117],[5.845696,46.836273],[5.845767,46.835861],[5.845484,46.835594],[5.846097,46.83387],[5.846967,46.833296],[5.847112,46.832653],[5.84742,46.832028],[5.84725,46.831627],[5.847187,46.83141],[5.847286,46.831241],[5.848259,46.829796],[5.850295,46.828488],[5.850126,46.828393],[5.84994,46.828448],[5.84976,46.828342],[5.850143,46.828081],[5.850172,46.827936],[5.849792,46.827693],[5.849208,46.827387],[5.848395,46.827013],[5.849644,46.825881],[5.85162,46.826001],[5.852178,46.826071],[5.854601,46.8244],[5.85515,46.824149],[5.856226,46.82345],[5.855637,46.822944],[5.855008,46.822378],[5.854125,46.821571],[5.852978,46.820476],[5.851879,46.819472],[5.851223,46.818932],[5.850565,46.818021],[5.850194,46.817383],[5.849835,46.816923],[5.849501,46.816597],[5.84881,46.81609],[5.847542,46.814589],[5.847572,46.814305],[5.847479,46.814034],[5.847139,46.813712],[5.846975,46.813472],[5.847018,46.812714],[5.84686,46.812379],[5.846392,46.811993],[5.845893,46.812195],[5.845755,46.812391],[5.845662,46.812626],[5.845601,46.812944],[5.845673,46.81319],[5.844824,46.813286],[5.844445,46.813522],[5.843597,46.813988],[5.842775,46.814173],[5.842626,46.814221],[5.842389,46.814436],[5.842106,46.814855],[5.841942,46.81504],[5.841415,46.815498],[5.84088,46.815986],[5.840415,46.816371],[5.839528,46.817151],[5.839171,46.817534],[5.83948,46.817776],[5.839849,46.818326],[5.840189,46.818584],[5.840682,46.818861],[5.84134,46.819182],[5.841651,46.819278],[5.841824,46.819291],[5.842,46.819363],[5.842204,46.819579],[5.842594,46.820318],[5.842739,46.82064],[5.84293,46.820954],[5.843151,46.820993],[5.843347,46.820935],[5.843607,46.820798],[5.843739,46.821422],[5.843856,46.821601],[5.843628,46.821707],[5.843172,46.821751],[5.842611,46.82189],[5.841533,46.822003],[5.84118,46.822079],[5.840387,46.822311],[5.839774,46.822383],[5.839049,46.822583],[5.837712,46.823149],[5.837362,46.82261],[5.836924,46.821686],[5.836572,46.821094],[5.836488,46.820976],[5.836072,46.820938],[5.836059,46.820881],[5.836367,46.820705],[5.836767,46.820364],[5.836887,46.819952],[5.836844,46.819539],[5.83669,46.819118],[5.836669,46.818932],[5.836585,46.818744],[5.836293,46.818434],[5.836167,46.818193],[5.834882,46.818512],[5.834399,46.818617],[5.833899,46.818685],[5.833435,46.818899],[5.833122,46.818992],[5.832243,46.819151],[5.831721,46.81922],[5.831564,46.819185],[5.8311,46.81922],[5.830594,46.819211],[5.830093,46.81942],[5.829719,46.819416],[5.82931,46.819388],[5.828853,46.819281],[5.828598,46.819248],[5.828347,46.819353],[5.827981,46.819542],[5.82715,46.819514],[5.826583,46.819362],[5.825782,46.8191],[5.825384,46.81915],[5.824133,46.819159],[5.82355,46.819217],[5.822991,46.819289],[5.822846,46.819273],[5.822485,46.8194],[5.821657,46.819563],[5.821417,46.819754],[5.821259,46.819773],[5.821362,46.818561],[5.821407,46.818251],[5.82143,46.817897],[5.820746,46.817948],[5.819982,46.818261],[5.819264,46.818338],[5.818334,46.818573],[5.817442,46.818842],[5.816849,46.817833],[5.816225,46.816831],[5.815594,46.81598],[5.812407,46.811566],[5.812145,46.811691],[5.81173,46.81198],[5.811099,46.812369],[5.809977,46.812869],[5.809776,46.812997],[5.80961,46.812609],[5.807532,46.813552],[5.807007,46.812233],[5.806354,46.811945],[5.807586,46.811448],[5.807902,46.811305],[5.808653,46.810822],[5.808751,46.810711],[5.808699,46.81049],[5.809026,46.810343],[5.809296,46.81054],[5.810033,46.811124],[5.810881,46.810484],[5.811761,46.810125],[5.812238,46.810032],[5.812835,46.81004],[5.812868,46.810345],[5.813273,46.810507],[5.8135,46.810492],[5.813855,46.810136],[5.814072,46.810022],[5.814797,46.809707],[5.814937,46.809629],[5.815245,46.809188],[5.815363,46.808983],[5.815544,46.808803],[5.81544,46.808416],[5.815263,46.807671],[5.814984,46.807218],[5.81508,46.806674],[5.815028,46.806448],[5.815318,46.806307],[5.815657,46.806283],[5.816112,46.806008],[5.816485,46.804929],[5.816456,46.804774],[5.81658,46.804374],[5.816601,46.80405],[5.816554,46.803871],[5.816569,46.803731],[5.816767,46.803396],[5.816813,46.802927],[5.816899,46.802662],[5.817051,46.802424],[5.817116,46.802247],[5.817239,46.801748],[5.817459,46.801086],[5.817504,46.800599],[5.817568,46.800389],[5.817682,46.800202],[5.818115,46.799631],[5.818419,46.799142],[5.818616,46.798797],[5.818805,46.798394],[5.819328,46.797723],[5.819482,46.797615],[5.819657,46.797553],[5.819857,46.797404],[5.819966,46.797137],[5.820076,46.796994],[5.820313,46.796767],[5.820971,46.796017],[5.821021,46.795365],[5.820812,46.795134],[5.821695,46.794449],[5.82157,46.794237],[5.821085,46.794629],[5.820678,46.794627],[5.820237,46.794739],[5.820137,46.794608],[5.819886,46.794512],[5.819871,46.794274],[5.820018,46.794171],[5.820052,46.793942],[5.819644,46.793908],[5.819262,46.79384],[5.818896,46.793739],[5.818037,46.793408],[5.817751,46.793385],[5.817489,46.793323],[5.816817,46.792934],[5.816464,46.793173],[5.816051,46.793306],[5.815216,46.793469],[5.814972,46.793546],[5.814938,46.793144],[5.816207,46.792637],[5.81635,46.792551],[5.815834,46.792233],[5.815168,46.791893],[5.814724,46.791687],[5.814455,46.791505],[5.814912,46.791177],[5.814886,46.790937],[5.815088,46.790765],[5.814681,46.79029],[5.815012,46.790112],[5.815241,46.790037],[5.815697,46.790054],[5.815871,46.790025],[5.816367,46.789805],[5.816662,46.789727],[5.817137,46.78969],[5.817779,46.789693],[5.818044,46.789555],[5.8182,46.789326],[5.818167,46.788813],[5.817992,46.788667],[5.818564,46.78826],[5.818888,46.787954],[5.819523,46.787294],[5.818845,46.787101],[5.818719,46.78703],[5.818411,46.786551],[5.818141,46.786331],[5.817565,46.78599],[5.817183,46.785743],[5.816669,46.785492],[5.817404,46.785043],[5.816256,46.784073],[5.811381,46.780508],[5.811538,46.780438],[5.811872,46.780179],[5.809236,46.777761],[5.811246,46.776948],[5.811057,46.776673],[5.81057,46.776456],[5.810351,46.776384],[5.810167,46.775918],[5.809625,46.775159],[5.809157,46.77475],[5.807895,46.774266],[5.807419,46.774033],[5.806445,46.773347],[5.805794,46.77287],[5.804724,46.772056],[5.80444,46.771742],[5.803892,46.771354],[5.801918,46.769897],[5.801113,46.769351],[5.800676,46.768948],[5.799734,46.768187],[5.798029,46.766581],[5.796833,46.765355],[5.79537,46.763982],[5.794563,46.763266],[5.793914,46.762722],[5.793152,46.762268],[5.7929,46.761956],[5.792723,46.761695],[5.791625,46.760315],[5.790174,46.758652],[5.789493,46.758251],[5.788241,46.757442],[5.788178,46.757089],[5.788174,46.756762],[5.788276,46.756485],[5.788411,46.756213],[5.788423,46.755986],[5.78833,46.755756],[5.7883,46.755412],[5.788327,46.755173],[5.788401,46.754879],[5.788358,46.7546],[5.788133,46.754262],[5.787317,46.753843],[5.786997,46.753625],[5.786399,46.753025],[5.786014,46.753221],[5.787309,46.755797],[5.786549,46.756028],[5.784784,46.75371],[5.785362,46.753484],[5.783222,46.751322],[5.782992,46.750984],[5.782046,46.750012],[5.780814,46.748782],[5.778373,46.748877],[5.777758,46.749216],[5.774519,46.750704],[5.770329,46.74709],[5.770157,46.746908],[5.76957,46.746926],[5.769258,46.746851],[5.768675,46.746493],[5.768587,46.745853],[5.767569,46.74511],[5.766938,46.744878],[5.766413,46.744938],[5.765988,46.74491],[5.765682,46.744812],[5.765494,46.744595],[5.765347,46.74402],[5.765176,46.743704],[5.765033,46.743529],[5.764235,46.743316],[5.763751,46.743134],[5.757931,46.741395],[5.757326,46.741212],[5.75655,46.740934],[5.755486,46.740632],[5.753573,46.740015],[5.752227,46.739553],[5.750891,46.739008],[5.750399,46.738821],[5.750011,46.738902],[5.749707,46.739073],[5.749358,46.739193],[5.749057,46.739344],[5.748817,46.739514],[5.748522,46.739626],[5.748307,46.739645],[5.747781,46.739641],[5.747484,46.739249],[5.746105,46.739204],[5.745477,46.739342],[5.744986,46.739363],[5.744585,46.739325],[5.744467,46.739479],[5.744359,46.739734],[5.744236,46.739873],[5.743847,46.74013],[5.743381,46.740381],[5.742671,46.740646],[5.742396,46.74078],[5.741919,46.741155],[5.741067,46.741228],[5.740648,46.741287],[5.740303,46.740825],[5.739824,46.740218],[5.739086,46.740207],[5.738712,46.74018],[5.737886,46.740162],[5.736812,46.74012],[5.736284,46.74018],[5.736,46.740298],[5.735801,46.740456],[5.735715,46.740617],[5.734985,46.740853],[5.734534,46.74101],[5.733888,46.741144],[5.733419,46.741312],[5.733101,46.741024],[5.730524,46.741587],[5.730417,46.741441],[5.729862,46.741369],[5.72887,46.741321],[5.728226,46.741247],[5.727966,46.741169],[5.727656,46.741148],[5.727069,46.741006],[5.726587,46.740918],[5.726084,46.740906],[5.725099,46.740943],[5.724855,46.740905],[5.724276,46.740733],[5.72374,46.740635],[5.723458,46.74062],[5.722772,46.740658],[5.722138,46.74057],[5.721595,46.740403],[5.720906,46.740253],[5.720028,46.74027],[5.719558,46.740595],[5.719434,46.740704],[5.718718,46.740916],[5.717541,46.74123],[5.717124,46.741601],[5.716638,46.741822],[5.713467,46.743218],[5.712312,46.743611],[5.708855,46.744884],[5.708411,46.745123],[5.708032,46.745367],[5.70782,46.745531],[5.707565,46.74577],[5.707353,46.74601],[5.707139,46.746163],[5.706886,46.746435],[5.706738,46.746813],[5.706754,46.747082],[5.706735,46.747938],[5.706857,46.748076],[5.707193,46.748078],[5.707387,46.748665],[5.7072,46.748805],[5.706855,46.749581],[5.706661,46.749929],[5.706523,46.750329],[5.706639,46.751038],[5.706622,46.751549],[5.7063,46.751644],[5.705897,46.751734],[5.705013,46.751851],[5.703694,46.75282],[5.702937,46.753149],[5.702015,46.753634],[5.701768,46.75373],[5.701634,46.753892],[5.701769,46.754335],[5.70192,46.754546],[5.702195,46.754771],[5.702438,46.755079],[5.702052,46.755232],[5.701448,46.7554],[5.701069,46.755578],[5.700242,46.756041],[5.699659,46.756245],[5.699438,46.756248],[5.699025,46.756382],[5.698759,46.756442],[5.698457,46.756557],[5.698837,46.757475],[5.697628,46.757833],[5.697469,46.757917],[5.697116,46.758013],[5.697026,46.758076],[5.696981,46.758265],[5.696855,46.758339],[5.696657,46.758273],[5.696267,46.758076],[5.696122,46.75806],[5.696055,46.758279],[5.695916,46.758548],[5.695155,46.758966],[5.6945,46.758975],[5.694204,46.759105],[5.693587,46.759044],[5.693396,46.759685],[5.693623,46.760682],[5.693765,46.761439],[5.693932,46.761912],[5.694136,46.762253],[5.694441,46.762455],[5.694554,46.762566],[5.694945,46.762709],[5.695035,46.762794],[5.694994,46.762932],[5.694959,46.763271],[5.694963,46.763693],[5.695047,46.764445],[5.695056,46.764802],[5.695017,46.765145],[5.694862,46.765418],[5.694614,46.765697],[5.695276,46.766671],[5.695727,46.767405],[5.695541,46.768283],[5.695498,46.768796],[5.6952,46.76873],[5.694661,46.769702],[5.694518,46.76988],[5.694365,46.770322],[5.69407,46.770326],[5.693685,46.771799],[5.693381,46.771814],[5.693177,46.773166],[5.693331,46.773493],[5.693305,46.773685],[5.692395,46.774095],[5.69216,46.774103],[5.691685,46.77429],[5.690416,46.774855],[5.689841,46.77516],[5.689173,46.775474],[5.688936,46.775755],[5.68862,46.775838],[5.688248,46.775896],[5.687871,46.775985],[5.689637,46.776356],[5.686708,46.778538],[5.686398,46.778657],[5.68191,46.780434],[5.680546,46.780796],[5.680029,46.781103],[5.679648,46.781359],[5.679008,46.781816],[5.678578,46.782101],[5.678214,46.782322],[5.678066,46.78238],[5.677782,46.782568],[5.6775,46.782807],[5.677163,46.783147],[5.677075,46.783198],[5.677095,46.783579],[5.676366,46.78409],[5.676025,46.784286],[5.675665,46.784359],[5.672411,46.785114],[5.671492,46.785293],[5.670636,46.785022],[5.670111,46.784898],[5.669599,46.7849],[5.669116,46.785023],[5.668637,46.785216],[5.668834,46.785523],[5.669711,46.786574],[5.670173,46.78673],[5.670081,46.786938],[5.668675,46.787194],[5.667743,46.787395],[5.667506,46.787346],[5.667063,46.787299],[5.666544,46.787275],[5.666153,46.787274],[5.665816,46.787346],[5.665246,46.786378],[5.665183,46.786604],[5.665101,46.786718],[5.66488,46.786861],[5.664747,46.786905],[5.664646,46.786838],[5.664169,46.786791],[5.663995,46.786747],[5.664004,46.786868],[5.663549,46.78704],[5.662797,46.787255],[5.662415,46.786917],[5.661928,46.786869],[5.661799,46.786963],[5.661229,46.787088],[5.66087,46.787266],[5.660202,46.787312],[5.659751,46.787431],[5.659201,46.787668],[5.658621,46.788113],[5.657645,46.788706],[5.656742,46.789107],[5.655739,46.789578],[5.65539,46.789631],[5.655158,46.789595],[5.653941,46.790298],[5.653463,46.790546],[5.653255,46.790901],[5.6531,46.791539],[5.652818,46.791952],[5.652616,46.792133],[5.652308,46.792945],[5.651541,46.793643],[5.651087,46.794005],[5.650597,46.794024],[5.650603,46.794261],[5.650849,46.794395],[5.650163,46.794955],[5.649889,46.795032],[5.649381,46.795023],[5.649046,46.795036],[5.648423,46.794906],[5.647672,46.794553],[5.647407,46.794661],[5.647344,46.794947],[5.647104,46.79506],[5.646481,46.795168],[5.646041,46.795074],[5.645737,46.795699],[5.645694,46.79585],[5.644937,46.796322],[5.644662,46.796469],[5.644709,46.796832],[5.644834,46.797144],[5.644742,46.79775],[5.644974,46.798339],[5.645497,46.798989],[5.645663,46.799542],[5.645299,46.800094],[5.643831,46.801802],[5.643477,46.802779],[5.643447,46.804231],[5.644149,46.805557],[5.644429,46.806055],[5.644698,46.806339],[5.644646,46.80655],[5.644324,46.80665],[5.644145,46.806925],[5.644329,46.807285],[5.64493,46.807748],[5.645632,46.808197],[5.645733,46.808516],[5.645773,46.808779],[5.645608,46.809426],[5.645016,46.809661],[5.644622,46.810173],[5.644414,46.81106],[5.643991,46.811384],[5.643256,46.811706],[5.642615,46.811922],[5.642422,46.811973],[5.642213,46.811815],[5.641165,46.811951],[5.640374,46.812143],[5.639552,46.812372],[5.639015,46.812026],[5.638245,46.811645],[5.635117,46.812359],[5.635025,46.812485],[5.63483,46.812502],[5.631734,46.8132],[5.63104,46.812436],[5.630941,46.812021],[5.630719,46.81161],[5.630497,46.811579],[5.630228,46.811481],[5.629637,46.810913],[5.629116,46.811006],[5.629111,46.810916],[5.628984,46.810417],[5.628637,46.809836],[5.628146,46.809988],[5.627492,46.809473],[5.626707,46.80871],[5.625495,46.807552],[5.625052,46.80779],[5.623805,46.808163],[5.623002,46.808217],[5.622379,46.808342],[5.621502,46.808549],[5.621486,46.8087],[5.621413,46.808783],[5.621088,46.808994],[5.620609,46.809277],[5.620265,46.8095],[5.619457,46.810063],[5.619507,46.810789],[5.619567,46.811295],[5.619592,46.811695],[5.619583,46.812018],[5.619532,46.812333],[5.619537,46.812945],[5.619602,46.813255],[5.619917,46.814105],[5.620222,46.814573],[5.620464,46.815002],[5.620594,46.815306],[5.620693,46.815609],[5.62062,46.815718],[5.620439,46.815776],[5.62052,46.815975],[5.62069,46.816192],[5.621043,46.816499],[5.621405,46.816783],[5.621524,46.817002],[5.620251,46.817488],[5.620586,46.818008],[5.620611,46.818109],[5.620517,46.818208],[5.620145,46.818414],[5.619705,46.818587],[5.619459,46.818807],[5.619074,46.819053],[5.618673,46.819202],[5.618364,46.819343],[5.618205,46.819491],[5.617989,46.819904],[5.617901,46.820124],[5.617899,46.82036],[5.617961,46.820547],[5.618133,46.820645],[5.618189,46.820736],[5.618173,46.820886],[5.617883,46.820977],[5.617599,46.821015],[5.617225,46.821131],[5.61701,46.821052],[5.616857,46.820896],[5.616759,46.820456],[5.616279,46.820274],[5.615962,46.820306],[5.615719,46.820157],[5.615365,46.820092],[5.614917,46.819842],[5.614735,46.819926],[5.614682,46.820208],[5.614414,46.820207],[5.614356,46.820143],[5.614314,46.819897],[5.614212,46.8197],[5.614045,46.819521],[5.613947,46.819322],[5.613684,46.819365],[5.613529,46.819219],[5.613444,46.818956],[5.613298,46.818654],[5.613008,46.818542],[5.612776,46.818326],[5.612728,46.817821],[5.61287,46.817498],[5.612585,46.817091],[5.612358,46.816888],[5.612173,46.816658],[5.611855,46.816445],[5.611523,46.816281],[5.611426,46.816162],[5.611424,46.816],[5.611567,46.815929],[5.611647,46.815783],[5.611411,46.815574],[5.61146,46.815262],[5.611409,46.814981],[5.611267,46.814739],[5.611209,46.814359],[5.611206,46.814015],[5.610945,46.813849],[5.610636,46.813846],[5.610389,46.813782],[5.610262,46.813466],[5.609975,46.813405],[5.609732,46.813321],[5.609445,46.813317],[5.608713,46.813374],[5.607907,46.813349],[5.607737,46.813218],[5.607535,46.812739],[5.607314,46.81243],[5.606869,46.812184],[5.60643,46.812029],[5.605883,46.811962],[5.605354,46.811984],[5.604925,46.812181],[5.604578,46.812207],[5.604385,46.812316],[5.604377,46.812489],[5.604267,46.812726],[5.603962,46.812711],[5.603544,46.812649],[5.603322,46.812531],[5.602887,46.812117],[5.602536,46.811965],[5.602054,46.81199],[5.601488,46.812129],[5.601063,46.812215],[5.599886,46.812003],[5.599438,46.811996],[5.599271,46.812192],[5.599063,46.812356],[5.599018,46.812531],[5.59885,46.812561],[5.5986,46.812331],[5.598621,46.812159],[5.598379,46.812179],[5.598345,46.81233],[5.598478,46.812436],[5.598453,46.812609],[5.598293,46.812638],[5.598005,46.812571],[5.597668,46.812621],[5.597464,46.812777],[5.597349,46.813034],[5.597266,46.813442],[5.597149,46.813649],[5.596908,46.813748],[5.5965,46.813822],[5.596283,46.813986],[5.595925,46.813854],[5.595605,46.813788],[5.595434,46.813576],[5.595312,46.813524],[5.595162,46.813743],[5.59518,46.813878],[5.594912,46.813958],[5.594659,46.81399],[5.594436,46.814111],[5.594277,46.814243],[5.593921,46.814328],[5.593547,46.814365],[5.593389,46.814303],[5.593391,46.814142],[5.593546,46.813896],[5.593537,46.813733],[5.593358,46.813653],[5.593052,46.813636],[5.592764,46.813694],[5.592374,46.813652],[5.591902,46.813431],[5.591624,46.813443],[5.591395,46.813516],[5.591248,46.813685],[5.59126,46.813828],[5.591212,46.814067],[5.591282,46.814241],[5.59118,46.814335],[5.591066,46.814345],[5.590447,46.814183],[5.590295,46.814182],[5.590011,46.814321],[5.590555,46.814532],[5.590919,46.814528],[5.591382,46.814647],[5.591709,46.814617],[5.591978,46.814694],[5.592479,46.815056],[5.592783,46.815481],[5.593054,46.815414],[5.593708,46.815395],[5.594109,46.815464],[5.594665,46.815621],[5.59526,46.815964],[5.595701,46.81645],[5.594546,46.816752],[5.595564,46.818676],[5.593394,46.818956],[5.593981,46.820705],[5.594279,46.821623],[5.595004,46.823768],[5.594691,46.823812],[5.594301,46.82377],[5.593981,46.823807],[5.593492,46.824093],[5.593613,46.824574],[5.593894,46.824979],[5.594097,46.825141],[5.596381,46.82707],[5.596938,46.827594],[5.59783,46.828243],[5.599732,46.829654],[5.599524,46.82984],[5.5995,46.829916],[5.59923,46.829923],[5.598245,46.830753],[5.597902,46.831024],[5.597338,46.830628],[5.596582,46.830766],[5.59644,46.830696],[5.595177,46.83102],[5.592938,46.831656],[5.592856,46.831539],[5.592723,46.831233],[5.592575,46.830789],[5.591362,46.830956],[5.590204,46.831343],[5.589645,46.831996],[5.587528,46.832121],[5.587576,46.832224],[5.586654,46.832461],[5.586989,46.83299],[5.588033,46.833814],[5.588202,46.83389],[5.588017,46.833964],[5.586725,46.834335],[5.586261,46.834499],[5.58555,46.834672],[5.585254,46.834717],[5.584994,46.83486],[5.584874,46.834963],[5.584353,46.835484],[5.584026,46.835693],[5.583846,46.835759],[5.583451,46.835836],[5.583112,46.835995],[5.583023,46.836082],[5.582648,46.836254],[5.582167,46.836355],[5.581886,46.836363],[5.581986,46.836716],[5.582186,46.838923],[5.582249,46.839446],[5.582245,46.839663],[5.582085,46.840171],[5.581431,46.840116],[5.580752,46.840019],[5.579795,46.839733],[5.578525,46.840181],[5.577994,46.839567],[5.577676,46.839251],[5.576681,46.839604],[5.575382,46.840097],[5.575547,46.840262],[5.574646,46.841137],[5.572496,46.839722],[5.572258,46.839804],[5.57195,46.839873],[5.571311,46.840073],[5.570982,46.839589],[5.570718,46.839281],[5.570509,46.839097],[5.570242,46.83912],[5.569051,46.839369],[5.567917,46.838162],[5.567714,46.838307],[5.56746,46.838593],[5.567235,46.838897],[5.567001,46.839139],[5.566746,46.839315],[5.566377,46.839479],[5.564859,46.840052],[5.564231,46.840314],[5.563495,46.840677],[5.563459,46.841075],[5.563547,46.842428],[5.563562,46.843848],[5.563652,46.84621],[5.563314,46.847847],[5.563829,46.849856],[5.563199,46.850585],[5.562732,46.851013],[5.562239,46.851717],[5.561935,46.852131],[5.561648,46.852671],[5.561364,46.853394],[5.560584,46.853804],[5.560018,46.854162],[5.558699,46.85486],[5.558191,46.854959],[5.557683,46.855104],[5.557261,46.855169],[5.556033,46.855493],[5.555176,46.855751],[5.554277,46.856134],[5.554096,46.856229],[5.553588,46.856402],[5.553296,46.856447],[5.553288,46.856709],[5.553199,46.856983],[5.552895,46.85748],[5.552805,46.857583],[5.552591,46.857646],[5.552398,46.857969],[5.552068,46.858437],[5.550962,46.859812],[5.550578,46.860289],[5.548794,46.862534],[5.5483,46.863161],[5.545728,46.866405],[5.545423,46.866747],[5.544834,46.867318],[5.544271,46.867793],[5.543823,46.868129],[5.543268,46.868494],[5.54287,46.868728],[5.542099,46.869149],[5.541021,46.869707],[5.540654,46.869653],[5.540178,46.869623],[5.539789,46.869638],[5.539416,46.869746],[5.539186,46.869855],[5.538907,46.87013],[5.538621,46.870451],[5.538498,46.870623],[5.538455,46.870833],[5.538623,46.871329],[5.538474,46.871633],[5.538292,46.872082],[5.538191,46.872376],[5.538083,46.872672],[5.537872,46.873133],[5.537345,46.874131],[5.537111,46.874501],[5.536541,46.875061],[5.536346,46.875319],[5.535645,46.876652],[5.535437,46.876978],[5.534694,46.87783],[5.534081,46.878493],[5.533611,46.878932],[5.533097,46.879328],[5.532642,46.879615],[5.530646,46.880751],[5.530224,46.881008],[5.52993,46.881113],[5.52917,46.881508],[5.528737,46.881772],[5.528537,46.881973],[5.528806,46.882193],[5.528506,46.882551],[5.528197,46.883025],[5.527904,46.88363],[5.527683,46.884207],[5.527273,46.885327],[5.527125,46.885696],[5.526897,46.886342],[5.526543,46.887272],[5.526245,46.888086],[5.525809,46.889374],[5.525609,46.889923],[5.525277,46.890638],[5.525028,46.891063],[5.524766,46.891461],[5.524267,46.892092],[5.52399,46.892377],[5.523839,46.892544],[5.522926,46.893498],[5.522316,46.894075],[5.52158,46.89472],[5.521102,46.89516],[5.520957,46.895198],[5.519763,46.896057],[5.519499,46.896282],[5.51937,46.896474],[5.519242,46.896954],[5.518853,46.897001],[5.517352,46.89748],[5.517178,46.897527],[5.516244,46.897566],[5.514719,46.897657],[5.51048,46.897926],[5.510364,46.898971],[5.510327,46.899733],[5.510117,46.899973],[5.509904,46.900108],[5.509058,46.90053],[5.508886,46.900676],[5.501648,46.906304],[5.501534,46.905538],[5.501806,46.904455],[5.501907,46.903426],[5.501139,46.90238],[5.499879,46.90059],[5.499701,46.899815],[5.497659,46.897863],[5.496294,46.898122],[5.495472,46.898358],[5.494298,46.898724],[5.493683,46.899322],[5.492682,46.89964],[5.492333,46.900297],[5.491823,46.901181],[5.491272,46.901989],[5.49082,46.902344],[5.49035,46.902662],[5.488775,46.903535],[5.488619,46.90363],[5.488529,46.90385],[5.488241,46.904209],[5.487779,46.904581],[5.487242,46.904985],[5.486818,46.905203],[5.486222,46.905396],[5.486015,46.90551],[5.485609,46.905807],[5.485012,46.906112],[5.484735,46.906319],[5.484598,46.906594],[5.48439,46.907545],[5.484405,46.907769],[5.484343,46.908279],[5.48438,46.908518],[5.484379,46.908753],[5.484239,46.909193],[5.48417,46.909674],[5.483764,46.910444],[5.483683,46.910872],[5.483506,46.911296],[5.483311,46.911574],[5.482975,46.911882],[5.481877,46.912563],[5.481488,46.912837],[5.48135,46.91302],[5.481133,46.913394],[5.481052,46.913791],[5.48097,46.914474],[5.480928,46.914657],[5.480811,46.914844],[5.48055,46.915662],[5.480376,46.916084],[5.479483,46.917504],[5.479921,46.91767],[5.480504,46.917752],[5.481346,46.917809],[5.482107,46.917936],[5.482248,46.918027],[5.482636,46.918033],[5.482878,46.91853],[5.483382,46.918527],[5.48429,46.918679],[5.484642,46.918781],[5.484866,46.919113],[5.485228,46.919436],[5.486219,46.919827],[5.486898,46.91973],[5.48711,46.919553],[5.487847,46.918749],[5.488172,46.918496],[5.488473,46.918174],[5.489142,46.917708],[5.49124,46.91622],[5.493194,46.91473],[5.493987,46.914097],[5.494248,46.913721],[5.494415,46.913271],[5.495255,46.911601],[5.495331,46.911528],[5.495599,46.911499],[5.495965,46.911509],[5.496713,46.911581],[5.496992,46.911547],[5.49729,46.911473],[5.498083,46.9114],[5.500872,46.910782],[5.501685,46.910725],[5.502103,46.910683],[5.502277,46.910605],[5.502656,46.910566],[5.504037,46.91061],[5.504804,46.910645],[5.505359,46.910639],[5.505828,46.910587],[5.506709,46.910434],[5.507539,46.91032],[5.5082,46.910334],[5.509132,46.910233],[5.509332,46.910179],[5.509542,46.910004],[5.50983,46.90981],[5.509987,46.909657],[5.510396,46.909163],[5.510527,46.909048],[5.51091,46.908925],[5.511245,46.908864],[5.511672,46.908542],[5.511997,46.908445],[5.512335,46.90837],[5.512552,46.908357],[5.512743,46.908426],[5.513073,46.908467],[5.513522,46.908565],[5.514069,46.908649],[5.514557,46.90866],[5.514881,46.908621],[5.515576,46.908349],[5.515773,46.908209],[5.516216,46.908156],[5.516366,46.907911],[5.516586,46.907997],[5.517351,46.908163],[5.518514,46.908658],[5.519053,46.908848],[5.519726,46.909346],[5.520348,46.909426],[5.521415,46.909408],[5.522966,46.909365],[5.524301,46.909672],[5.524674,46.910021],[5.525996,46.910016],[5.526783,46.909789],[5.52812,46.908631],[5.528337,46.908515],[5.528682,46.908419],[5.529425,46.908345],[5.530041,46.908609],[5.531754,46.909833],[5.533479,46.911555],[5.535571,46.911683],[5.535748,46.911777],[5.5365,46.912863],[5.536918,46.913118],[5.538926,46.913351],[5.539396,46.913324],[5.539812,46.913218],[5.540956,46.912117],[5.542798,46.91119],[5.54416,46.911782],[5.544644,46.911673],[5.545986,46.910683],[5.546362,46.910339],[5.547207,46.910212],[5.547628,46.910385],[5.548323,46.910269],[5.549028,46.910301],[5.549556,46.910404],[5.550007,46.910721],[5.550929,46.910624],[5.551616,46.91119],[5.552258,46.909833],[5.552619,46.909917],[5.553703,46.910292],[5.5544,46.910818],[5.554865,46.9112],[5.555142,46.911385],[5.555921,46.912299],[5.556018,46.912684],[5.555738,46.913185],[5.555635,46.91345],[5.554689,46.913098],[5.554299,46.913702],[5.553868,46.914168],[5.553669,46.914627],[5.553532,46.914799],[5.553219,46.915097],[5.554529,46.915426],[5.553846,46.916336],[5.553295,46.917019],[5.552928,46.917414],[5.552904,46.917473],[5.552271,46.918198],[5.551919,46.918723],[5.551842,46.918881],[5.551777,46.919566],[5.55176,46.920392],[5.551735,46.920799],[5.551626,46.921047],[5.551275,46.921359],[5.550845,46.921804],[5.550468,46.922076],[5.549725,46.92267],[5.549403,46.922914],[5.548541,46.923599],[5.547129,46.92475],[5.545614,46.92597],[5.545164,46.926325],[5.543854,46.927385],[5.543677,46.927513],[5.54312,46.927737],[5.54203,46.928106],[5.540999,46.928491],[5.539378,46.929061],[5.538614,46.929316],[5.538542,46.92938],[5.538333,46.929805],[5.537938,46.930558],[5.537581,46.931265],[5.537632,46.931457],[5.537521,46.931474],[5.537577,46.931632],[5.537741,46.931846],[5.538264,46.932402],[5.538547,46.932644],[5.538867,46.932966],[5.539523,46.9337],[5.539453,46.933913],[5.539221,46.934073],[5.539113,46.934225],[5.539153,46.934366],[5.54127,46.935657],[5.541615,46.935845],[5.542286,46.935787],[5.542843,46.935521],[5.54336,46.935399],[5.544237,46.935439],[5.544909,46.935799],[5.545727,46.93617],[5.546188,46.936228],[5.546972,46.936192],[5.547939,46.936114],[5.548524,46.936155],[5.549163,46.936583],[5.549761,46.936652],[5.549945,46.936818],[5.550151,46.936855],[5.55101,46.937225],[5.551461,46.937776],[5.551653,46.93792],[5.55192,46.938006],[5.552175,46.938021],[5.55252,46.938125],[5.552689,46.938363],[5.552821,46.938617],[5.553067,46.938839],[5.553923,46.939069],[5.554211,46.939232],[5.554795,46.939403],[5.555144,46.93954],[5.55603,46.939811],[5.556403,46.940137],[5.556569,46.940538],[5.556816,46.940687],[5.558971,46.940675],[5.560799,46.940527],[5.562016,46.940343],[5.56284,46.940186],[5.564246,46.940006],[5.566491,46.939641],[5.567004,46.939559],[5.568329,46.939432],[5.569434,46.939376],[5.570172,46.939355],[5.570975,46.939205],[5.572295,46.939016],[5.57433,46.938478],[5.575504,46.937939],[5.576172,46.937764],[5.577128,46.937466],[5.577676,46.937329],[5.579106,46.936883],[5.5797,46.936721],[5.580281,46.936599],[5.581497,46.936565],[5.58263,46.936515],[5.583688,46.936578],[5.58436,46.936521],[5.585079,46.936316],[5.585471,46.936101],[5.585976,46.935747],[5.586593,46.935113],[5.586953,46.935499],[5.587186,46.935922],[5.587679,46.936516],[5.588605,46.937147],[5.589552,46.937744],[5.590883,46.938364],[5.592079,46.938691],[5.593151,46.938745],[5.594395,46.938921],[5.595486,46.939087],[5.596402,46.939176],[5.597192,46.939153],[5.597833,46.939053],[5.598644,46.938774],[5.598903,46.938703],[5.59936,46.938451],[5.600212,46.938012],[5.601074,46.937692],[5.601555,46.937359],[5.60199,46.937116],[5.602654,46.936763],[5.603195,46.936533],[5.603556,46.93632],[5.603927,46.93606],[5.604079,46.935929],[5.604527,46.935485],[5.6047,46.935292],[5.604873,46.935179],[5.605164,46.935192],[5.605446,46.935237],[5.606228,46.935246],[5.606596,46.935051],[5.607134,46.934895],[5.607298,46.934877],[5.607352,46.934695],[5.607582,46.934437],[5.607849,46.934239],[5.613838,46.932998],[5.615684,46.932593],[5.616802,46.932338],[5.618481,46.930608],[5.621179,46.930118],[5.621822,46.929748],[5.622076,46.929838],[5.622756,46.930603],[5.62435,46.93233],[5.625095,46.933017],[5.626175,46.934699],[5.62658,46.935913],[5.626791,46.936394],[5.626899,46.9368],[5.626891,46.936959],[5.626956,46.937195],[5.627113,46.938155],[5.627177,46.938924],[5.627254,46.939092],[5.627461,46.939245],[5.627777,46.939519],[5.628701,46.940819],[5.629087,46.941171],[5.630365,46.942065],[5.630586,46.941754],[5.631292,46.942218],[5.631779,46.942762],[5.632029,46.94357],[5.632317,46.944127],[5.632541,46.944335],[5.632867,46.944528],[5.633265,46.944835],[5.634075,46.945616],[5.63477,46.946162],[5.635647,46.946975],[5.636868,46.948004],[5.637727,46.94879],[5.63799,46.949042],[5.6384,46.949235],[5.63892,46.94939],[5.639441,46.949578],[5.639742,46.949965],[5.640226,46.950555],[5.640657,46.951365],[5.641006,46.951689],[5.641304,46.952022],[5.641621,46.952274],[5.641763,46.95265],[5.641975,46.952895],[5.642267,46.95314],[5.64295,46.953534],[5.643366,46.953875],[5.643817,46.954356],[5.644605,46.954956],[5.645608,46.955641],[5.645903,46.955948],[5.646495,46.95677],[5.646722,46.957061],[5.647244,46.957622],[5.647941,46.958477],[5.648509,46.95892],[5.649312,46.959564],[5.649924,46.960084],[5.650053,46.960004],[5.650139,46.960128],[5.65134,46.961674],[5.651472,46.961836],[5.650689,46.964075],[5.650667,46.964349],[5.650565,46.964592],[5.650543,46.964866],[5.650932,46.965182],[5.651175,46.965314],[5.650989,46.965773],[5.650849,46.966031],[5.65074,46.966467],[5.650862,46.966572],[5.651303,46.966772],[5.651476,46.966893],[5.651512,46.966992],[5.651721,46.967184],[5.651451,46.967904],[5.651266,46.968278],[5.651085,46.968525],[5.650874,46.968911],[5.650765,46.969285],[5.65048,46.969678],[5.650373,46.969944],[5.650332,46.970766],[5.650414,46.972078],[5.651396,46.9711],[5.65183,46.970699],[5.652265,46.970277],[5.652907,46.969383],[5.653353,46.96888],[5.653811,46.968473],[5.654414,46.96756],[5.65513,46.967733],[5.6561,46.967924],[5.656678,46.96809],[5.659827,46.964305],[5.66001,46.964353],[5.660251,46.964475],[5.660578,46.964603],[5.660763,46.964639],[5.661113,46.964847],[5.661632,46.965111],[5.66213,46.965204],[5.662298,46.965269],[5.662406,46.965486],[5.662778,46.965639],[5.663091,46.965791],[5.663317,46.965973],[5.663776,46.966268],[5.664234,46.966396],[5.664548,46.966577],[5.665215,46.967018],[5.665613,46.96744],[5.665823,46.967764],[5.666814,46.968724],[5.667246,46.968995],[5.667847,46.969345],[5.668471,46.969807],[5.668864,46.970007],[5.669262,46.970138],[5.669831,46.970134],[5.6702,46.970217],[5.670988,46.970544],[5.67127,46.970624],[5.671832,46.970632],[5.672323,46.970755],[5.672504,46.970874],[5.672832,46.971017],[5.67351,46.971205],[5.673643,46.971284],[5.673893,46.971531],[5.674074,46.971674],[5.674534,46.971708],[5.674853,46.971705],[5.675698,46.971542],[5.676098,46.97186],[5.676353,46.972099],[5.676637,46.972488],[5.676938,46.972821],[5.67734,46.973179],[5.677493,46.973367],[5.678247,46.973933],[5.678596,46.97406],[5.679194,46.974344],[5.680065,46.974839],[5.680317,46.97501],[5.681055,46.974988],[5.681596,46.975],[5.682282,46.97509],[5.682705,46.975119],[5.683121,46.975066],[5.683568,46.975065],[5.690523,46.972972],[5.690689,46.972906],[5.691405,46.972716],[5.691853,46.972645],[5.691984,46.972645],[5.693417,46.972358],[5.695674,46.971946],[5.698428,46.971438],[5.702152,46.970833],[5.702994,46.970696],[5.704232,46.970413],[5.705058,46.970562],[5.716336,46.973293],[5.71696,46.973454],[5.717497,46.973707],[5.721017,46.975465],[5.723435,46.976441],[5.725484,46.977295],[5.727277,46.978059],[5.728988,46.978863],[5.729256,46.978945],[5.730689,46.979669],[5.731274,46.979867],[5.731811,46.979915],[5.732426,46.979839],[5.732879,46.979666],[5.733088,46.979502],[5.733206,46.97936],[5.733294,46.979144],[5.733276,46.978994],[5.733362,46.978755],[5.733339,46.978652],[5.733071,46.978561],[5.733021,46.978441],[5.733238,46.977984],[5.733308,46.977763],[5.733236,46.977568],[5.733114,46.977364],[5.733112,46.977213],[5.733238,46.97706],[5.733285,46.976873],[5.7331,46.976619],[5.733374,46.976275],[5.733456,46.976106],[5.733333,46.975895],[5.733056,46.975765],[5.732981,46.975663],[5.733132,46.975381],[5.733111,46.975202],[5.733141,46.975011],[5.73327,46.974764],[5.733267,46.97458],[5.733349,46.974409],[5.733272,46.974129],[5.733423,46.973836],[5.733632,46.973596],[5.733637,46.97329],[5.733316,46.973294],[5.733519,46.97304],[5.733555,46.972935],[5.733476,46.972503],[5.733507,46.9723],[5.733607,46.972153],[5.733641,46.972013],[5.733547,46.971871],[5.733521,46.971728],[5.733549,46.971363],[5.73369,46.971186],[5.733728,46.970982],[5.733693,46.9707],[5.733809,46.97054],[5.734077,46.970504],[5.734104,46.970387],[5.734239,46.970378],[5.73457,46.970419],[5.734825,46.970309],[5.734973,46.970125],[5.734993,46.969911],[5.734913,46.969717],[5.734765,46.969513],[5.734644,46.969278],[5.734652,46.969127],[5.7348,46.969094],[5.734853,46.968994],[5.734815,46.968799],[5.73475,46.968697],[5.734604,46.968649],[5.734564,46.968402],[5.734626,46.968077],[5.734813,46.967684],[5.735012,46.967403],[5.735003,46.967105],[5.735053,46.966549],[5.735123,46.966057],[5.735296,46.965705],[5.73534,46.965489],[5.735435,46.965255],[5.735733,46.965287],[5.735808,46.965135],[5.736124,46.96494],[5.7366,46.964857],[5.736773,46.964522],[5.737256,46.964427],[5.737542,46.964279],[5.737642,46.964011],[5.737875,46.963928],[5.73807,46.964097],[5.738342,46.96399],[5.738542,46.964059],[5.738743,46.964047],[5.738724,46.963887],[5.738837,46.963814],[5.739179,46.963669],[5.739372,46.963658],[5.739526,46.963694],[5.739676,46.963585],[5.739713,46.963457],[5.739808,46.963362],[5.740008,46.963315],[5.739987,46.963113],[5.740075,46.963059],[5.740261,46.963059],[5.740511,46.963109],[5.74089,46.962971],[5.74111,46.96285],[5.741401,46.96265],[5.741687,46.962369],[5.742171,46.961825],[5.742206,46.961614],[5.742606,46.961216],[5.742797,46.961091],[5.743095,46.960584],[5.743384,46.96031],[5.743607,46.960223],[5.74381,46.960033],[5.743878,46.959713],[5.744061,46.959407],[5.744411,46.959055],[5.744729,46.958502],[5.745197,46.958292],[5.746022,46.958053],[5.746402,46.957817],[5.74645,46.957722],[5.751191,46.958583],[5.75056,46.96031],[5.751377,46.960489],[5.751931,46.960686],[5.752226,46.960666],[5.752977,46.960328],[5.75336,46.960407],[5.75356,46.960705],[5.753961,46.960805],[5.754904,46.960906],[5.755399,46.961213],[5.755821,46.961622],[5.756645,46.962194],[5.757588,46.962548],[5.757507,46.962809],[5.758568,46.96298],[5.758748,46.963222],[5.75862,46.964058],[5.758811,46.964727],[5.758964,46.965318],[5.760816,46.964993],[5.761426,46.964909],[5.762029,46.964484],[5.76234,46.963374],[5.762515,46.962366],[5.762859,46.962349],[5.766454,46.962821],[5.768012,46.963159],[5.768082,46.96343],[5.76877,46.963389],[5.771029,46.962713],[5.771713,46.962452],[5.772186,46.962404],[5.772853,46.962479],[5.774682,46.962912],[5.775393,46.963094],[5.776585,46.963531],[5.777084,46.963524],[5.777355,46.963447],[5.77829,46.963231],[5.779401,46.962983],[5.780433,46.962884],[5.781848,46.96287],[5.781916,46.963039],[5.781817,46.963299],[5.781554,46.963698],[5.781431,46.963851],[5.781169,46.964101],[5.780973,46.964251],[5.780797,46.96445],[5.780717,46.964805],[5.780569,46.964993],[5.78027,46.965169],[5.779885,46.965255],[5.779031,46.965331],[5.778053,46.965336],[5.778167,46.966098],[5.777924,46.966861],[5.779346,46.96837],[5.77986,46.968605],[5.780427,46.968155],[5.782427,46.967607],[5.782601,46.967327],[5.782825,46.967232],[5.783581,46.966814],[5.783787,46.96656],[5.783915,46.966244],[5.783908,46.966174],[5.78403,46.966045],[5.784161,46.965803],[5.784115,46.965514],[5.784234,46.965331],[5.784456,46.965251],[5.784634,46.964662],[5.784966,46.964272],[5.785059,46.964054],[5.785069,46.963739],[5.785294,46.963408],[5.785615,46.963263],[5.786334,46.963196],[5.786325,46.963061],[5.786023,46.962882],[5.786222,46.962479],[5.786419,46.962424],[5.786852,46.962453],[5.787207,46.96245],[5.787515,46.962416],[5.787872,46.962439],[5.788372,46.962533],[5.788893,46.962578],[5.789588,46.962666],[5.790967,46.962658],[5.791769,46.962539],[5.792663,46.963649],[5.793045,46.964158],[5.793287,46.964538],[5.793448,46.964834],[5.794422,46.96682],[5.79467,46.967596],[5.795526,46.967448],[5.796149,46.967308],[5.796375,46.967352],[5.796754,46.967794],[5.796997,46.96788],[5.797215,46.96782],[5.797596,46.968384],[5.797908,46.968885],[5.798353,46.969549],[5.799081,46.970758],[5.800106,46.970725],[5.800577,46.970654],[5.800909,46.970666],[5.801258,46.970937],[5.801457,46.971131],[5.801411,46.971387],[5.801279,46.971582],[5.801241,46.971803],[5.800955,46.972024],[5.800719,46.972128],[5.800799,46.972326],[5.801009,46.972354],[5.801916,46.972157],[5.80224,46.972034],[5.803187,46.972157],[5.803954,46.972177],[5.804434,46.972248],[5.804863,46.972156],[5.805594,46.971915],[5.806108,46.971885],[5.807026,46.971992],[5.807523,46.972006],[5.808465,46.971842],[5.809168,46.971694],[5.809923,46.971671],[5.811113,46.97184],[5.811622,46.971884],[5.811385,46.971735],[5.811297,46.97149],[5.811318,46.971192],[5.811413,46.970892],[5.811645,46.970793],[5.811977,46.970818],[5.812571,46.971027],[5.812841,46.970892],[5.812744,46.970633],[5.812441,46.96998],[5.812334,46.969684],[5.812119,46.969224],[5.811959,46.96869],[5.811918,46.968417],[5.813371,46.968505],[5.813801,46.968115],[5.814039,46.967657],[5.814314,46.967068],[5.814172,46.966568],[5.814026,46.966323],[5.81352,46.965092],[5.814169,46.964646],[5.814448,46.964612],[5.814626,46.964683],[5.814816,46.964821],[5.814957,46.964867],[5.815222,46.96487],[5.815452,46.964794],[5.815778,46.96491],[5.816155,46.964973],[5.816454,46.964945],[5.817046,46.964983],[5.817304,46.965018],[5.817417,46.965084],[5.817407,46.965202],[5.817493,46.965418],[5.817889,46.96563],[5.818676,46.965825],[5.818961,46.966158],[5.819244,46.966373],[5.819258,46.96626],[5.81935,46.966164],[5.819851,46.965853],[5.820171,46.965573],[5.820474,46.965057],[5.820808,46.964989],[5.821444,46.964949],[5.82162,46.964914],[5.822041,46.964992],[5.822335,46.964952],[5.822632,46.964943],[5.822882,46.964886],[5.823531,46.964818],[5.823888,46.964704],[5.824259,46.96463],[5.824836,46.965482],[5.824271,46.96558],[5.824186,46.96579],[5.825526,46.967711],[5.826624,46.967877],[5.827315,46.968275],[5.828733,46.968242],[5.829703,46.968556],[5.830269,46.968465],[5.830846,46.968723],[5.831692,46.968688],[5.831745,46.968391],[5.831971,46.967911],[5.832245,46.967727],[5.833526,46.96752],[5.834493,46.967167],[5.834601,46.96684],[5.834891,46.966683],[5.835999,46.966275],[5.836229,46.966268],[5.836978,46.966983],[5.841604,46.970662],[5.842015,46.970919],[5.842484,46.97104],[5.839144,46.971556],[5.837612,46.971776],[5.836776,46.972055],[5.836949,46.972586],[5.836407,46.972666],[5.837561,46.975243],[5.837928,46.976967],[5.838655,46.978224],[5.8394,46.979371],[5.839926,46.980367],[5.840552,46.981817],[5.840868,46.983119],[5.840794,46.983586],[5.840936,46.984524],[5.841082,46.984861],[5.841088,46.985648],[5.841031,46.986078],[5.841119,46.986436],[5.841583,46.986596],[5.84259,46.986598],[5.844436,46.986662],[5.845136,46.988092],[5.845018,46.988703],[5.845477,46.98968],[5.845968,46.990551],[5.846338,46.991055],[5.847006,46.990991],[5.846747,46.993018],[5.847186,46.995748],[5.847274,46.997053],[5.847372,46.997632],[5.846959,46.999145],[5.84695,47.000744],[5.846858,47.001776],[5.846654,47.003354],[5.849041,47.003332],[5.849434,47.003397],[5.849508,47.003968],[5.849138,47.003979],[5.849069,47.005709],[5.849072,47.005941],[5.850418,47.006019],[5.851309,47.006431],[5.851948,47.006789],[5.852894,47.007246],[5.853264,47.007136],[5.854313,47.006913],[5.855208,47.00676],[5.855443,47.007954],[5.855827,47.008827],[5.85908,47.008154],[5.860821,47.00775],[5.862012,47.007517],[5.86517,47.007159],[5.866725,47.006881],[5.867556,47.006778],[5.870225,47.006621],[5.872504,47.006373],[5.876483,47.005882],[5.882086,47.005008],[5.882601,47.003848],[5.883256,47.002829],[5.88336,47.002384],[5.883104,47.001649],[5.882773,47.000466],[5.882665,46.999799],[5.884168,46.998666],[5.884425,46.998569],[5.884548,46.998429],[5.884521,46.998025],[5.884831,46.997746],[5.885554,46.997723],[5.885775,46.998076],[5.886638,46.998019],[5.886623,46.996969],[5.887284,46.996876],[5.88837,46.996766],[5.889,46.996785],[5.889736,46.996992],[5.890528,46.997299],[5.890988,46.997284],[5.891826,46.997034],[5.897111,46.99573],[5.898862,46.99899],[5.907292,46.999415],[5.911076,46.999497],[5.911609,47.001424],[5.913016,47.004931],[5.913467,47.005773],[5.91468,47.007175],[5.915011,47.008049],[5.915095,47.009078],[5.915203,47.010695],[5.915507,47.011935],[5.916064,47.013121],[5.9174,47.01449],[5.918538,47.015461],[5.919875,47.014987],[5.921234,47.014625],[5.921786,47.014467],[5.921456,47.013968],[5.919628,47.011819],[5.919058,47.011021],[5.91882,47.010531],[5.918709,47.010241],[5.918646,47.00986],[5.918746,47.009692],[5.918781,47.009434],[5.918498,47.009024],[5.916753,47.006661],[5.915928,47.005214],[5.915836,47.004752],[5.916065,47.00425],[5.916029,47.003936],[5.915954,47.003578],[5.915915,47.003072],[5.91595,47.002471],[5.916104,47.001738],[5.916093,47.001025],[5.915762,46.999951],[5.915638,46.996704],[5.915449,46.995256],[5.915183,46.994052],[5.914848,46.993182],[5.914441,46.99206],[5.914054,46.99085],[5.913562,46.989996],[5.913179,46.989572],[5.913039,46.989441],[5.913639,46.988566],[5.914869,46.987457]]]}}